NOAA 1 [-]              
1 04793U 70106A   23143.92288545 -.00000033  00000+0  65760-4 0  9997
2 04793 101.5035 203.4715 0031567  20.1792 153.3069 12.54015271400262
NOAA 2 (ITOS-D) [-]     
1 06235U 72082A   23144.44730226 -.00000032  00000+0  90985-4 0  9997
2 06235 101.9905 134.3259 0004323 138.4005  16.3894 12.53162373314915
NOAA 3 [-]              
1 06920U 73086A   23143.83325292 -.00000036  00000+0  77268-4 0  9991
2 06920 102.2465 131.9088 0006802  27.2442  35.7085 12.40356805242994
NOAA 4 [-]              
1 07529U 74089A   23143.84509049 -.00000034  00000+0  77203-4 0  9993
2 07529 101.9550 130.0486 0008994 170.3011 251.0683 12.53168691219189
NOAA 5 [-]              
1 09057U 76077A   23144.41493005 -.00000013  00000+0  24883-3 0  9990
2 09057 102.1519 114.4570 0009284 230.0994 299.0707 12.37784709116150
TIROS N [-]             
1 11060U 78096A   23143.83811426  .00000239  00000+0  13602-3 0  9992
2 11060  98.5845 192.6965 0009532 238.7893 121.2349 14.18566388519867
NOAA 6 [-]              
1 11416U 79057A   23144.28360699  .00000456  00000+0  17919-3 0  9992
2 11416  98.6521 160.5575 0009736 339.4185  20.6606 14.34050549290571
NOAA 7 [-]              
1 12553U 81059A   23143.91174233  .00000072  00000+0  58117-4 0  9996
2 12553  98.9477 196.6731 0010751 222.9595 137.0741 14.17410646166025
NOAA 8 [-]              
1 13923U 83022A   23144.23757412  .00000204  00000+0  98454-4 0  9997
2 13923  98.7121 138.9758 0013949 295.3127  64.6609 14.28983048 91338
NOAA 9 [-]              
1 15427U 84123A   23144.54714782  .00000156  00000+0  10179-3 0  9991
2 15427  99.0887 128.1189 0013772 280.2050 188.7569 14.16360629985126
NOAA 10 [-]             
1 16969U 86073A   23144.18993394  .00000213  00000+0  10257-3 0  9998
2 16969  98.6034 129.7465 0012958  38.7282 332.1353 14.28363930909739
NOAA 11 [-]             
1 19531U 88089A   23143.80551131  .00000087  00000+0  65465-4 0  9993
2 19531  98.4645 119.8822 0009948 279.5667  80.4383 14.15398262788965
NOAA 12 [-]             
1 21263U 91032A   23144.41977758  .00000138  00000+0  75521-4 0  9996
2 21263  98.5317 140.0132 0014753  64.1307 296.1392 14.26118710665584
NOAA 13 [-]             
1 22739U 93050A   23143.86053425  .00000184  00000+0  12104-3 0  9999
2 22739  98.5517 112.5230 0010760  89.3280 270.9126 14.12991389535128
NOAA 14 [-]             
1 23455U 94089A   23143.86202258  .00000071  00000+0  58646-4 0  9995
2 23455  98.4266 156.7607 0010627  68.5774 291.6533 14.14273212464821
NOAA 15 [B]             
1 25338U 98030A   23144.51630450  .00000263  00000+0  12747-3 0  9993
2 25338  98.6071 173.9764 0010826  29.5275 330.6515 14.26319827301884
NOAA 16 [-]             
1 26536U 00055A   23143.90988074  .00000111  00000+0  81117-4 0  9994
2 26536  98.5847 195.1910 0009283 273.1146  86.8965 14.13430457465444
NOAA 17 [-]             
1 27453U 02032A   23144.21226905  .00000262  00000+0  13000-3 0  9995
2 27453  98.7149  91.2756 0011981   7.1700 352.9648 14.25301708 87403
NOAA 18 [B]             
1 28654U 05018A   23144.41459157  .00000284  00000+0  17592-3 0  9999
2 28654  98.9097 218.9196 0015402  88.3968 271.8968 14.12939936928219
NOAA 19 [+]             
1 33591U 09005A   23144.52684707  .00000209  00000+0  13762-3 0  9990
2 33591  99.1011 190.0739 0012967 312.3425  47.6647 14.12757793736600
SUOMI NPP [+]           
1 37849U 11061A   23144.50118316  .00000112  00000+0  73731-4 0  9997
2 37849  98.7036  83.6222 0001141  69.8303  61.2417 14.19562232599576
NOAA 20 [+]             
1 43013U 17073A   23144.43967004  .00000123  00000+0  79193-4 0  9994
2 43013  98.7519  83.2513 0001287 106.4246 253.7072 14.19551571285601
NOAA 21 (JPSS-2) [+]    
1 54234U 22150A   23143.89200098  .00000128  00000+0  81525-4 0  9992
2 54234  98.7156  82.2249 0001423  97.7099 262.4239 14.19546304 27604
